start=new Date('2021-09-26T00:00:00.000Z').valueOf();
sats=[{"MEAN_ANOMALY":"289.0542","RA_OF_ASC_NODE":"142.4989","PERIOD":"95.592","ECCENTRICITY":"0.00022100","TLE_LINE1":"1 47389U 21005AS  21268.35841549  .00000022  00000-0  20423-4 0  9996","PERIAPSIS":"545.664","OBJECT_NAME":"STARLINK-2110","COUNTRY_CODE":"US","EPHEMERIS_TYPE":"0","OBJECT_TYPE":"PAYLOAD","OBJECT_ID":"2021-005AS","DECAY_DATE":null,"RCS_SIZE":"LARGE","TLE_LINE2":"2 47389  53.0528 142.4989 0002210  71.0686 289.0542 15.06406265 38192","MEAN_ELEMENT_THEORY":"SGP4","REF_FRAME":"TEME","NORAD_CAT_ID":"47389","SEMIMAJOR_AXIS":"6925.329","BSTAR":"0.00002042300000","ARG_OF_PERICENTER":"71.0686","MEAN_MOTION":"15.06406265","GP_ID":"185507424","MEAN_MOTION_DDOT":"0.0000000000000","ELEMENT_SET_NO":"999","CENTER_NAME":"EARTH","MEAN_MOTION_DOT":"0.00000022","LAUNCH_DATE":"2021-01-20","TIME_SYSTEM":"UTC","INCLINATION":"53.0528","SITE":"AFETR","REV_AT_EPOCH":"3819","EPOCH":"2021-09-25T08:36:07.098336","FILE":"3128274","APOAPSIS":"548.725","CLASSIFICATION_TYPE":"U"},{"LAUNCH_DATE":"2021-01-20","TIME_SYSTEM":"UTC","SITE":"AFETR","INCLINATION":"53.0549","REV_AT_EPOCH":"3792","EPOCH":"2021-09-25T10:03:43.742592","FILE":"3128274","APOAPSIS":"548.817","CLASSIFICATION_TYPE":"U","GP_ID":"185507674","MEAN_MOTION_DDOT":"0.0000000000000","ELEMENT_SET_NO":"999","CENTER_NAME":"EARTH","MEAN_MOTION_DOT":"-0.00002391","DECAY_DATE":null,"RCS_SIZE":"LARGE","TLE_LINE2":"2 47390  53.0549 162.2192 0002259  76.2738 283.8502 15.06387157 37927","MEAN_ELEMENT_THEORY":"SGP4","REF_FRAME":"TEME","BSTAR":"-0.00014170000000","SEMIMAJOR_AXIS":"6925.388","NORAD_CAT_ID":"47390","ARG_OF_PERICENTER":"76.2738","MEAN_MOTION":"15.06387157","MEAN_ANOMALY":"283.8502","RA_OF_ASC_NODE":"162.2192","PERIOD":"95.593","TLE_LINE1":"1 47390U 21005AT  21268.41925628 -.00002391  00000-0 -14170-3 0  9990","OBJECT_NAME":"STARLINK-2111","PERIAPSIS":"545.688","ECCENTRICITY":"0.00022590","COUNTRY_CODE":"US","EPHEMERIS_TYPE":"0","OBJECT_TYPE":"PAYLOAD","OBJECT_ID":"2021-005AT"},{"TLE_LINE1":"1 47391U 21005AU  21268.36207033  .00000716  00000-0  66985-4 0  9997","PERIAPSIS":"545.643","ECCENTRICITY":"0.00022290","OBJECT_NAME":"STARLINK-2112","EPHEMERIS_TYPE":"0","COUNTRY_CODE":"US","OBJECT_TYPE":"PAYLOAD","OBJECT_ID":"2021-005AU","MEAN_ANOMALY":"287.8244","RA_OF_ASC_NODE":"132.4801","PERIOD":"95.592","NORAD_CAT_ID":"47391","SEMIMAJOR_AXIS":"6925.322","BSTAR":"0.00006698500000","MEAN_ELEMENT_THEORY":"SGP4","REF_FRAME":"TEME","ARG_OF_PERICENTER":"72.2988","MEAN_MOTION":"15.06408701","RCS_SIZE":"LARGE","DECAY_DATE":null,"TLE_LINE2":"2 47391  53.0537 132.4801 0002229  72.2988 287.8244 15.06408701 38333","CENTER_NAME":"EARTH","ELEMENT_SET_NO":"999","MEAN_MOTION_DOT":"0.00000716","GP_ID":"185505922","MEAN_MOTION_DDOT":"0.0000000000000","REV_AT_EPOCH":"3833","APOAPSIS":"548.731","EPOCH":"2021-09-25T08:41:22.876512","FILE":"3128274","CLASSIFICATION_TYPE":"U","TIME_SYSTEM":"UTC","LAUNCH_DATE":"2021-01-20","INCLINATION":"53.0537","SITE":"AFETR"},{"PERIOD":"95.592","MEAN_ANOMALY":"287.9731","RA_OF_ASC_NODE":"132.4787","OBJECT_ID":"2021-005AV","OBJECT_TYPE":"PAYLOAD","PERIAPSIS":"545.517","TLE_LINE1":"1 47392U 21005AV  21268.36302224  .00001185  00000-0  98408-4 0  9992","ECCENTRICITY":"0.00024110","OBJECT_NAME":"STARLINK-2113","COUNTRY_CODE":"US","EPHEMERIS_TYPE":"0","TLE_LINE2":"2 47392  53.0530 132.4787 0002411  72.1521 287.9731 15.06408807 38334","DECAY_DATE":null,"RCS_SIZE":"LARGE","ARG_OF_PERICENTER":"72.1521","MEAN_MOTION":"15.06408807","MEAN_ELEMENT_THEORY":"SGP4","REF_FRAME":"TEME","SEMIMAJOR_AXIS":"6925.322","BSTAR":"0.00009840800000","NORAD_CAT_ID":"47392","GP_ID":"185506172","MEAN_MOTION_DDOT":"0.0000000000000","MEAN_MOTION_DOT":"0.00001185","ELEMENT_SET_NO":"999","CENTER_NAME":"EARTH","SITE":"AFETR","INCLINATION":"53.0530","LAUNCH_DATE":"2021-01-20","TIME_SYSTEM":"UTC","EPOCH":"2021-09-25T08:42:45.121536","FILE":"3128274","APOAPSIS":"548.856","CLASSIFICATION_TYPE":"U","REV_AT_EPOCH":"3833"},{"MEAN_MOTION_DDOT":"0.0000000000000","GP_ID":"185506924","MEAN_MOTION_DOT":"0.00000126","ELEMENT_SET_NO":"999","CENTER_NAME":"EARTH","SITE":"AFETR","INCLINATION":"53.0426","TIME_SYSTEM":"UTC","LAUNCH_DATE":"2021-01-20","CLASSIFICATION_TYPE":"U","FILE":"3128274","EPOCH":"2021-09-25T19:40:12.907776","APOAPSIS":"548.793","REV_AT_EPOCH":"3875","PERIOD":"95.592","RA_OF_ASC_NODE":"105.4859","MEAN_ANOMALY":"264.2151","OBJECT_TYPE":"PAYLOAD","OBJECT_ID":"2021-005AW","COUNTRY_CODE":"US","EPHEMERIS_TYPE":"0","TLE_LINE1":"1 47393U 21005AW  21268.81959384  .00000126  00000-0  27380-4 0  9993","OBJECT_NAME":"STARLINK-2114","PERIAPSIS":"545.619","ECCENTRICITY":"0.00022920","TLE_LINE2":"2 47393  53.0426 105.4859 0002292  95.9099 264.2151 15.06402513 38757","DECAY_DATE":null,"RCS_SIZE":"LARGE","MEAN_MOTION":"15.06402513","ARG_OF_PERICENTER":"95.9099","REF_FRAME":"TEME","MEAN_ELEMENT_THEORY":"SGP4","BSTAR":"0.00002738000000","SEMIMAJOR_AXIS":"6925.341","NORAD_CAT_ID":"47393"},{"NORAD_CAT_ID":"47394","SEMIMAJOR_AXIS":"6925.343","BSTAR":"0.00000776510000","MEAN_ELEMENT_THEORY":"SGP4","REF_FRAME":"TEME","ARG_OF_PERICENTER":"66.8984","MEAN_MOTION":"15.06401921","DECAY_DATE":null,"RCS_SIZE":"LARGE","TLE_LINE2":"2 47394  53.0563 127.7486 0002536  66.8984 293.2272 15.06401921 38404","ECCENTRICITY":"0.00025360","TLE_LINE1":"1 47394U 21005AX  21268.30539951 -.00000166  00000-0  77651-5 0  9994","PERIAPSIS":"545.451","OBJECT_NAME":"STARLINK-2115","EPHEMERIS_TYPE":"0","COUNTRY_CODE":"US","OBJECT_ID":"2021-005AX","OBJECT_TYPE":"PAYLOAD","MEAN_ANOMALY":"293.2272","RA_OF_ASC_NODE":"127.7486","PERIOD":"95.592","REV_AT_EPOCH":"3840","APOAPSIS":"548.964","FILE":"3128274","EPOCH":"2021-09-25T07:19:46.517664","CLASSIFICATION_TYPE":"U","LAUNCH_DATE":"2021-01-20","TIME_SYSTEM":"UTC","SITE":"AFETR","INCLINATION":"53.0563","CENTER_NAME":"EARTH","ELEMENT_SET_NO":"999","MEAN_MOTION_DOT":"-0.00000166","GP_ID":"185507174","MEAN_MOTION_DDOT":"0.0000000000000"},{"SITE":"AFETR","INCLINATION":"53.0550","LAUNCH_DATE":"2021-01-20","TIME_SYSTEM":"UTC","APOAPSIS":"548.853","EPOCH":"2021-09-25T20:56:33.889344","FILE":"3128274","CLASSIFICATION_TYPE":"U","REV_AT_EPOCH":"3855","GP_ID":"185506423","MEAN_MOTION_DDOT":"0.0000000000000","MEAN_MOTION_DOT":"-0.00000643","CENTER_NAME":"EARTH","ELEMENT_SET_NO":"999","TLE_LINE2":"2 47395  53.0550 120.1848 0002425  70.8366 289.2886 15.06412877 38550","DECAY_DATE":null,"RCS_SIZE":"LARGE","ARG_OF_PERICENTER":"70.8366","MEAN_MOTION":"15.06412877","BSTAR":"-0.00002423400000","SEMIMAJOR_AXIS":"6925.309","NORAD_CAT_ID":"47395","REF_FRAME":"TEME","MEAN_ELEMENT_THEORY":"SGP4","PERIOD":"95.591","MEAN_ANOMALY":"289.2886","RA_OF_ASC_NODE":"120.1848","OBJECT_ID":"2021-005AY","OBJECT_TYPE":"PAYLOAD","TLE_LINE1":"1 47395U 21005AY  21268.87261446 -.00000643  00000-0 -24234-4 0  9997","PERIAPSIS":"545.495","ECCENTRICITY":"0.00024250","OBJECT_NAME":"STARLINK-2117","EPHEMERIS_TYPE":"0","COUNTRY_CODE":"US"},{"TLE_LINE2":"2 47396  53.0552 132.6753 0002505  75.1273 284.9993 15.06397409 38330","RCS_SIZE":"LARGE","DECAY_DATE":null,"ARG_OF_PERICENTER":"75.1273","MEAN_MOTION":"15.06397409","MEAN_ELEMENT_THEORY":"SGP4","REF_FRAME":"TEME","SEMIMAJOR_AXIS":"6925.356","NORAD_CAT_ID":"47396","BSTAR":"0.00015189000000","PERIOD":"95.592","MEAN_ANOMALY":"284.9993","RA_OF_ASC_NODE":"132.6753","OBJECT_ID":"2021-005AZ","OBJECT_TYPE":"PAYLOAD","ECCENTRICITY":"0.00025050","TLE_LINE1":"1 47396U 21005AZ  21268.31881833  .00001981  00000-0  15189-3 0  9997","PERIAPSIS":"545.487","OBJECT_NAME":"STARLINK-2118","COUNTRY_CODE":"US","EPHEMERIS_TYPE":"0","SITE":"AFETR","INCLINATION":"53.0552","LAUNCH_DATE":"2021-01-20","TIME_SYSTEM":"UTC","FILE":"3128274","EPOCH":"2021-09-25T07:39:05.903712","APOAPSIS":"548.956","CLASSIFICATION_TYPE":"U","REV_AT_EPOCH":"3833","GP_ID":"185506673","MEAN_MOTION_DDOT":"0.0000000000000","MEAN_MOTION_DOT":"0.00001981","ELEMENT_SET_NO":"999","CENTER_NAME":"EARTH"},{"SITE":"AFETR","INCLINATION":"53.0557","TIME_SYSTEM":"UTC","LAUNCH_DATE":"2021-01-20","APOAPSIS":"548.662","EPOCH":"2021-09-25T10:46:09.445152","FILE":"3128274","CLASSIFICATION_TYPE":"U","REV_AT_EPOCH":"3793","GP_ID":"185507425","MEAN_MOTION_DDOT":"0.0000000000000","MEAN_MOTION_DOT":"-0.00000357","CENTER_NAME":"EARTH","ELEMENT_SET_NO":"999","TLE_LINE2":"2 47397  53.0557 162.1092 0002052  76.8225 283.2993 15.06390914 37933","DECAY_DATE":null,"RCS_SIZE":"LARGE","ARG_OF_PERICENTER":"76.8225","MEAN_MOTION":"15.06390914","SEMIMAJOR_AXIS":"6925.376","BSTAR":"-0.00000503070000","NORAD_CAT_ID":"47397","MEAN_ELEMENT_THEORY":"SGP4","REF_FRAME":"TEME","PERIOD":"95.593","MEAN_ANOMALY":"283.2993","RA_OF_ASC_NODE":"162.1092","OBJECT_ID":"2021-005BA","OBJECT_TYPE":"PAYLOAD","PERIAPSIS":"545.820","TLE_LINE1":"1 47397U 21005BA  21268.44872043 -.00000357  00000-0 -50307-5 0  9996","OBJECT_NAME":"STARLINK-2119","ECCENTRICITY":"0.00020520","EPHEMERIS_TYPE":"0","COUNTRY_CODE":"US"},{"TIME_SYSTEM":"UTC","LAUNCH_DATE":"2021-01-20","SITE":"AFETR","INCLINATION":"53.0530","REV_AT_EPOCH":"3833","CLASSIFICATION_TYPE":"U","APOAPSIS":"548.789","FILE":"3128274","EPOCH":"2021-09-25T08:32:07.289952","MEAN_MOTION_DDOT":"0.0000000000000","GP_ID":"185507675","CENTER_NAME":"EARTH","ELEMENT_SET_NO":"999","MEAN_MOTION_DOT":"0.00001480","DECAY_DATE":null,"RCS_SIZE":"LARGE","TLE_LINE2":"2 47398  53.0530 132.5213 0002275  66.2794 293.8433 15.06399863 38335","NORAD_CAT_ID":"47398","SEMIMAJOR_AXIS":"6925.349","BSTAR":"0.00011826000000","MEAN_ELEMENT_THEORY":"SGP4","REF_FRAME":"TEME","MEAN_MOTION":"15.06399863","ARG_OF_PERICENTER":"66.2794","RA_OF_ASC_NODE":"132.5213","MEAN_ANOMALY":"293.8433","PERIOD":"95.592","EPHEMERIS_TYPE":"0","COUNTRY_CODE":"US","PERIAPSIS":"545.638","TLE_LINE1":"1 47398U 21005BB  21268.35563993  .00001480  00000-0  11826-3 0  9995","OBJECT_NAME":"STARLINK-2120","ECCENTRICITY":"0.00022750","OBJECT_ID":"2021-005BB","OBJECT_TYPE":"PAYLOAD"}];
